[{"OBJECT_NAME":"STARLINK-35526","OBJECT_ID":"2025-225X","EPOCH":"2026-03-09T12:36:05.566752","MEAN_MOTION":15.3018248,"ECCENTRICITY":0.00011178,"INCLINATION":53.1599,"RA_OF_ASC_NODE":166.3893,"ARG_OF_PERICENTER":82.3211,"MEAN_ANOMALY":277.7917,"EPHEMERIS_TYPE":0,"CLASSIFICATION_TYPE":"U","NORAD_CAT_ID":65931,"ELEMENT_SET_NO":999,"REV_AT_EPOCH":2438,"BSTAR":0.00062906036,"MEAN_MOTION_DOT":0.00018308,"MEAN_MOTION_DDOT":0},{"OBJECT_NAME":"GB 3","OBJECT_ID":"1983-056G","EPOCH":"2026-03-09T13:52:06.501792","MEAN_MOTION":13.81302374,"ECCENTRICITY":0.0733296,"INCLINATION":63.3073,"RA_OF_ASC_NODE":158.0315,"ARG_OF_PERICENTER":130.105,"MEAN_ANOMALY":236.6668,"EPHEMERIS_TYPE":0,"CLASSIFICATION_TYPE":"U","NORAD_CAT_ID":14180,"ELEMENT_SET_NO":999,"REV_AT_EPOCH":34523,"BSTAR":0.00052827,"MEAN_MOTION_DOT":4.843e-5,"MEAN_MOTION_DDOT":0}]
